IRIDIUM 156             
1 43576U 18061H   26159.11729512  .00000261  00000+0  86161-4 0  9996
2 43576  86.3965  60.5217 0002126  80.5238 279.6198 14.34219572412076
IRIDIUM 164             
1 43577U 18061J   26159.09826851  .00000148  00000+0  45849-4 0  9990
2 43577  86.3968  60.5698 0002065  88.0599 272.0834 14.34217556412117
IRIDIUM 159             
1 43578U 18061K   26159.13632299  .00000237  00000+0  77625-4 0  9993
2 43578  86.3966  60.4911 0002297  85.2268 274.9190 14.34219452412081
IRIDIUM 180             
1 43922U 19002A   26159.06605206  .00000062  00000+0  15149-4 0  9991
2 43922  86.3973 357.4117 0002245  89.0670 271.0783 14.34218146387683
IRIDIUM 176             
1 43923U 19002B   26159.05131420  .00000860  00000+0  13250-3 0  9999
2 43923  86.6095 357.3625 0002203  90.9520 269.1949 14.72255457397900
IRIDIUM 168             
1 43924U 19002C   26158.92017322  .00000039  00000+0  68408-5 0  9994
2 43924  86.3977 357.5497 0002195  89.1500 270.9947 14.34217731387643
IRIDIUM 173             
1 43925U 19002D   26159.04702336  .00000170  00000+0  53686-4 0  9992
2 43925  86.3974 357.3858 0002243  86.7216 273.4236 14.34217656387646
IRIDIUM 169             
1 43926U 19002E   26159.14043361  .00000278  00000+0  84334-4 0  9993
2 43926  86.4235  28.9760 0002158  70.6451 289.4981 14.38610470388920
IRIDIUM 172             
1 43927U 19002F   26159.11045007  .00000077  00000+0  20524-4 0  9998
2 43927  86.3972 357.3673 0002271  89.3648 270.7808 14.34218217387661
IRIDIUM 175             
1 43928U 19002G   26158.91831854  .00000372  00000+0  10396-3 0  9992
2 43928  86.4506 294.3962 0001317 218.9968 141.1138 14.43607824397644
IRIDIUM 171             
1 43929U 19002H   26159.09142250  .00000042  00000+0  81028-5 0  9994
2 43929  86.3982 357.6802 0002031  87.4042 272.7386 14.34217836387650
IRIDIUM 170             
1 43930U 19002J   26159.05749865  .00000254  00000+0  36321-4 0  9997
2 43930  86.6093 357.3626 0002540  89.0779 271.0729 14.72253981397915
IRIDIUM 167             
1 43931U 19002K   26159.01531122  .00000022  00000+0  79145-6 0  9995
2 43931  86.3973 357.4291 0001861  85.6981 274.4427 14.34217622387642
IRIDIUM 181             
1 56726U 23068S   26159.09363890  .00000348  00000+0  97538-4 0  9996
2 56726  86.4504  60.5917 0002287  90.7418 269.4044 14.43309970161121
IRIDIUM 177             
1 56727U 23068T   26158.92592103  .00001261  00000+0  16248-3 0  9992
2 56727  86.1960 333.1913 0002443  85.7482 274.4018 14.80224059164999
IRIDIUM 174             
1 56728U 23068U   26159.04513772  .00000842  00000+0  12958-3 0  9990
2 56728  86.6102 357.5142 0002577  85.5444 274.6067 14.72251768164670
IRIDIUM 178             
1 56729U 23068V   26159.11784959  .00001187  00000+0  15284-3 0  9994
2 56729  86.6547  29.1509 0002672  89.0453 271.1074 14.80219070165027
IRIDIUM 179             
1 56730U 23068W   26159.11249678  .00001073  00000+0  13780-3 0  9993
2 56730  86.6788  38.1054 0002397  87.2648 272.8848 14.80235669165020
